CUTE-1 (CO-55)          
1 27844U 03031E   26059.99311405  .00000385  00000+0  18585-3 0  9991
2 27844  98.6778  69.8999 0010391 135.3044 224.8974 14.24257525176272
CUBESAT XI-IV (CO-57)   
1 27848U 03031J   26060.48995895  .00000346  00000+0  17102-3 0  9993
2 27848  98.6807  70.1897 0010013 150.6547 209.5195 14.23554450176057
CUBESAT XI-V            
1 28895U 05043F   26060.35655531  .00002445  00000+0  39486-3 0  9998
2 28895  98.2811 213.8242 0014273 183.4223 176.6888 14.72274458 85882
CUTE-1.7+APD II (CO-65) 
1 32785U 08021C   26060.48723546  .00008796  00000+0  57154-3 0  9993
2 32785  97.8184  39.8128 0010409  43.2272 316.9770 15.08226230968958
CANX-2                  
1 32790U 08021H   26060.46138021  .00006049  00000+0  43364-3 0  9992
2 32790  97.8548  38.2755 0012354  54.7745 305.4635 15.04688480968600
SEEDS II (CO-66)        
1 32791U 08021J   26060.47811639  .00023475  00000+0  84353-3 0  9992
2 32791  97.7502  53.5693 0002874  23.1073 337.0295 15.28650703970813
SWISSCUBE               
1 35932U 09051B   26060.26609144  .00001467  00000+0  30090-3 0  9995
2 35932  98.4108 326.2594 0006495 178.2176 181.9049 14.62231629873388
BEESAT-1                
1 35933U 09051C   26060.28912142  .00001231  00000+0  25806-3 0  9991
2 35933  98.4037 326.1398 0004732 189.6799 170.4311 14.61509618873425
ITUPSAT1                
1 35935U 09051E   26060.18608492  .00001124  00000+0  24310-3 0  9992
2 35935  98.4126 325.3382 0006684 205.9421 154.1444 14.60246277872975
TISAT 1                 
1 36799U 10035E   26060.37140273  .00026267  00000+0  98732-3 0  9998
2 36799  98.0642 357.7898 0000072  30.7764 329.3477 15.27148089851226
AEROCUBE 4.5A           
1 38767U 12048K   26060.39590990  .00090304  00000+0  10437-2 0  9996
2 38767  64.6373  48.8959 0042201 214.8790 144.9589 15.60273313355694
STRAND-1                
1 39090U 13009E   26060.48782507  .00000453  00000+0  16699-3 0  9994
2 39090  98.3880 243.3837 0008559 185.7162 174.3928 14.37086242681596
BRITE-AUSTRIA           
1 39091U 13009F   26060.45502593  .00000281  00000+0  11045-3 0  9996
2 39091  98.3948 242.5687 0009868 195.7698 164.3182 14.36490276681580
NEE-01 PEGASO           
1 39151U 13018B   26060.32293696  .00004615  00000+0  44886-3 0  9994
2 39151  98.1025 201.0627 0013431 155.7038 204.4816 14.93009904694604
POPACS 2                
1 39269U 13055E   26059.56269569  .00025093  00000+0  44072-3 0  9991
2 39269  80.9901 268.2251 0432377 181.9696 177.9842 14.87252926647045
POPACS 3                
1 39270U 13055F   26060.49049771  .00017583  00000+0  42330-3 0  9998
2 39270  81.0064 345.7744 0561792  37.5913 326.3192 14.53661696622894
ZACUBE-1 (TSHEPISOSAT)  
1 39417U 13066B   26060.45977726  .00006047  00000+0  47976-3 0  9993
2 39417  97.8179  22.2431 0041399 247.8949 111.7877 15.00219983664578
WNISAT-1                
1 39423U 13066H   26060.39463243  .00001959  00000+0  36545-3 0  9994
2 39423  97.7026 217.3093 0163031 211.0567 148.0918 14.57833897651025
TRITON-1                
1 39427U 13066M   26060.49685698  .00003148  00000+0  38487-3 0  9998
2 39427  97.8299 332.7756 0089644 224.6904 134.7060 14.81139737658141
GOMX-1                  
1 39430U 13066Q   26060.51535347  .00001947  00000+0  29863-3 0  9993
2 39430  97.6578 267.7299 0130693  63.5240 297.9303 14.69059098654107
CUBEBUG-2 (LO-74)       
1 39440U 13066AA  26060.38655110  .00006918  00000+0  65121-3 0  9990
2 39440  97.8797   9.0474 0059601  26.2789 334.1433 14.92825851660905
NEE-02 KRYSAOR          
1 39441U 13066AB  26060.29846838  .00003645  00000+0  40523-3 0  9993
2 39441  97.8806   0.3753 0068332  63.9985 296.8247 14.86094227660172
FUNCUBE-1 (AO-73)       
1 39444U 13066AE  26060.47841359  .00009637  00000+0  62560-3 0  9991
2 39444  97.8159  29.8789 0036446 207.4761 152.4541 15.07720939663424
UWE-3                   
1 39446U 13066AG  26060.36964482  .00006790  00000+0  59529-3 0  9992
2 39446  97.8588  15.8704 0048838 321.2040  38.5678 14.96062052661455
BRITE-CA1 (TORONTO)     
1 40020U 14033L   26060.33848387  .00001490  00000+0  23238-3 0  9999
2 40020  97.9553 191.3797 0077656 262.0328  97.2062 14.72434068626343
DUCHIFAT-1              
1 40021U 14033M   26060.04463791  .00057128  00000+0  10650-2 0  9992
2 40021  98.0658 105.4611 0006820 108.7598 251.4391 15.48607986638935
NANOSATC-BR1            
1 40024U 14033Q   26060.27260358  .00020704  00000+0  76560-3 0  9997
2 40024  98.0844  83.3357 0003678 171.9428 188.1869 15.27736779637483
QB50P1                  
1 40025U 14033R   26059.99975929  .00010723  00000+0  55682-3 0  9994
2 40025  98.1003  63.6971 0007358 227.8584 132.2023 15.16293301636622
QB50P2                  
1 40032U 14033Y   26060.46569458  .00010391  00000+0  58412-3 0  9997
2 40032  98.0715  50.7925 0007659 167.8282 192.3134 15.13477025636362
PERSEUS-M2              
1 40037U 14033AD  26060.52907779  .00001805  00000+0  17002-3 0  9991
2 40037  97.9844   8.9830 0010497 301.0624  58.9565 14.95106353634695
PERSEUS-M1              
1 40039U 14033AF  26060.37588118  .00003179  00000+0  29453-3 0  9997
2 40039  97.9540   2.8381 0010207 299.6573  60.3631 14.95198308634522
POLYITAN-1              
1 40042U 14033AJ  26060.49565951  .00022590  00000+0  79967-3 0  9997
2 40042  98.1051  76.8487 0008671 151.1434 209.0285 15.29123610637111
TIGRISAT                
1 40043U 14033AK  26060.36780782  .00003179  00000+0  37347-3 0  9993
2 40043  97.7651 212.9790 0050817  69.1403 291.5242 14.84674020629628
AEROCUBE 6A             
1 40045U 14033AM  26060.44067653  .00007174  00000+0  62327-3 0  9994
2 40045  97.7108 228.6970 0039581  17.4292 342.8277 14.96700070630491
AEROCUBE 6B             
1 40046U 14033AN  26060.41146432  .00008983  00000+0  75280-3 0  9996
2 40046  97.7097 228.2446 0037776  10.3476 349.8515 14.98077117630610
CANX-4                  
1 40055U 14034C   26060.19838965  .00001337  00000+0  17972-3 0  9991
2 40055  98.3292 291.4596 0012946   4.1403 355.9913 14.81035673628547
CANX-5                  
1 40056U 14034D   26060.19805836  .00001341  00000+0  18004-3 0  9995
2 40056  98.3295 291.4963 0012963   4.3960 355.7363 14.81052360619356
UKUBE-1                 
1 40074U 14037F   26060.47569357  .00011428  00000+0  67741-3 0  9993
2 40074  98.4214  52.6035 0002602 119.6721 240.4766 15.11569809632277
BRITE-PL2 (HEWELIUSZ)   
1 40119U 14049B   26060.30201127  .00002887  00000+0  27485-3 0  9996
2 40119  97.8976 171.5846 0015358 107.1507 253.1396 14.94126309625335
AEROCUBE 5C             
1 40965U 15058B   26060.46091211  .00004795  00000+0  42760-3 0  9997
2 40965  64.7656 237.5531 0131196 105.7834 255.7790 14.90765878349595
AEROCUBE 7              
1 40966U 15058C   26060.42165438  .00006787  00000+0  55104-3 0  9996
2 40966  64.7611 222.1265 0121200 104.9415 256.5155 14.94779064349840
FOX-1A (AO-85)          
1 40967U 15058D   26059.93594435  .00004045  00000+0  36968-3 0  9996
2 40967  64.7738 255.2193 0129360  99.4296 262.1465 14.90263896 97437
SINOD-D 1               
1 40968U 15058E   26060.47872879  .00006625  00000+0  54053-3 0  9990
2 40968  64.7733 235.9716 0117667  96.6228 264.8295 14.94932859100554
SNAP-3 ALICE            
1 40970U 15058G   26060.47373465  .00061321  00000+0  13662-2 0  9994
2 40970  64.7566 111.0077 0037530  72.5984 287.9252 15.42487239100186
LMRST-SAT               
1 40971U 15058H   26060.46831433  .00004523  00000+0  41326-3 0  9998
2 40971  64.7741 249.7047 0131479 101.1666 260.4260 14.89901802 97504
SNAP-3 EDDIE            
1 40972U 15058J   26060.47577875  .00059005  00000+0  12692-2 0  9995
2 40972  64.7486 102.4418 0038703  77.3934 283.1528 15.43488241102319
PROPCUBE 3              
1 40973U 15058K   26060.42871346  .00005928  00000+0  49774-3 0  9998
2 40973  64.7670 229.0068 0124056 102.9979 258.5019 14.93420391 98707
BISONSAT                
1 40974U 15058L   26060.49842715  .00014512  00000+0  75431-3 0  9992
2 40974  64.7610 161.1386 0079595  94.7715 266.2503 15.13540595 99307
SNAP-3 JIMI             
1 40975U 15058M   26060.50354103  .00009074  00000+0  64053-3 0  9999
2 40975  64.7647 200.1493 0106006  99.9730 261.3370 15.00980335 98058
PROPCUBE 1 (FLORA)      
1 40976U 15058N   26060.52653004  .00003957  00000+0  37730-3 0  9990
2 40976  64.7735 268.7426 0130595 103.4009 258.1697 14.88559685100238
SINOD-D 3               
1 40977U 15058P   26060.50714396  .00006027  00000+0  51609-3 0  9993
2 40977  64.7709 251.8443 0119087 101.5157 259.9356 14.93096061 98673
HORYU-4                 
1 41340U 16012D   26060.47972656  .00093001  00000+0  10430-2 0  9994
2 41340  30.9916 125.3653 0001743  59.5122 300.5703 15.61253665553827
RAVAN                   
1 41849U 16067B   26060.22782276  .00041125  00000+0  86017-3 0  9993
2 41849  98.0068 298.0718 0007193  33.0732 327.0963 15.45338563510977
CELTEE 1                
1 41850U 16067C   26060.51146876  .00007011  00000+0  34397-3 0  9997
2 41850  98.0829 279.7248 0000516 120.5268 239.6016 15.18458769509534
OPTICUBE 04             
1 41851U 16067D   26060.48733403  .00003135  00000+0  20149-3 0  9995
2 41851  98.0815 267.1047 0016997 119.5447 240.7478 15.09128592508920
AEROCUBE 8D             
1 41852U 16067E   26060.51411928  .00010189  00000+0  44035-3 0  9992
2 41852  98.0847 282.5228 0004303 132.3242 227.8358 15.22691064509672
AEROCUBE 8C             
1 41853U 16067F   26060.48999676  .00010592  00000+0  45448-3 0  9997
2 41853  98.0713 279.8675 0006698  76.4254 283.7726 15.22911768509665
CORVUS BC2              
1 42846U 17042X   26060.41964355  .00005163  00000+0  36221-3 0  9990
2 42846  97.3917 226.0857 0014286 119.3215 240.9441 15.05507621470844
CORVUS BC1              
1 42847U 17042Y   26060.42735476  .00003827  00000+0  26803-3 0  9992
2 42847  97.3953 226.8330 0013469  97.3188 262.9571 15.05729915470878
